[{"OBJECT_NAME":"STARLINK-3068","OBJECT_ID":"2021-082AA","EPOCH":"2026-03-09T22:14:55.374720","MEAN_MOTION":14.97526168,"ECCENTRICITY":0.00029956,"INCLINATION":69.998,"RA_OF_ASC_NODE":274.6307,"ARG_OF_PERICENTER":267.5766,"MEAN_ANOMALY":92.505,"EPHEMERIS_TYPE":0,"CLASSIFICATION_TYPE":"U","NORAD_CAT_ID":49154,"ELEMENT_SET_NO":999,"REV_AT_EPOCH":24756,"BSTAR":8.07279e-5,"MEAN_MOTION_DOT":8.51e-6,"MEAN_MOTION_DDOT":0},{"OBJECT_NAME":"FENGYUN 1C DEB","OBJECT_ID":"1999-025AZA","EPOCH":"2026-03-09T00:58:11.092224","MEAN_MOTION":14.92309795,"ECCENTRICITY":0.00550776,"INCLINATION":98.9912,"RA_OF_ASC_NODE":286.2715,"ARG_OF_PERICENTER":182.0101,"MEAN_ANOMALY":178.0901,"EPHEMERIS_TYPE":0,"CLASSIFICATION_TYPE":"U","NORAD_CAT_ID":30912,"ELEMENT_SET_NO":999,"REV_AT_EPOCH":687,"BSTAR":0.0018683847,"MEAN_MOTION_DOT":0.00019628,"MEAN_MOTION_DDOT":0}]
